[{"OBJECT_NAME":"STARLINK-30566","OBJECT_ID":"2023-158D","EPOCH":"2026-03-09T05:48:32.446944","MEAN_MOTION":15.26649023,"ECCENTRICITY":6.671e-5,"INCLINATION":42.9973,"RA_OF_ASC_NODE":29.3979,"ARG_OF_PERICENTER":266.2017,"MEAN_ANOMALY":93.8758,"EPHEMERIS_TYPE":0,"CLASSIFICATION_TYPE":"U","NORAD_CAT_ID":58054,"ELEMENT_SET_NO":999,"REV_AT_EPOCH":13350,"BSTAR":-0.0066933985,"MEAN_MOTION_DOT":-0.00175118,"MEAN_MOTION_DDOT":0},{"OBJECT_NAME":"OBJECT C","OBJECT_ID":"2025-012C","EPOCH":"2026-03-09T23:21:30.920256","MEAN_MOTION":15.25321174,"ECCENTRICITY":0.00067398,"INCLINATION":97.4321,"RA_OF_ASC_NODE":145.036,"ARG_OF_PERICENTER":249.6621,"MEAN_ANOMALY":110.3894,"EPHEMERIS_TYPE":0,"CLASSIFICATION_TYPE":"U","NORAD_CAT_ID":62727,"ELEMENT_SET_NO":999,"REV_AT_EPOCH":6325,"BSTAR":0.0005750193,"MEAN_MOTION_DOT":0.00014438,"MEAN_MOTION_DDOT":0}]
